$$SOE
2461288.500000000, A.D. 2026-Sep-05 00:00:00.0000, 3.971724611748369E+08, 1.530816432532805E+08, -1.052308031204243E+07,
2461295.500000000, A.D. 2026-Sep-12 00:00:00.0000, 3.932800980518112E+08, 1.622660584740577E+08, -7.569448954093903E+06,
2461302.500000000, A.D. 2026-Sep-19 00:00:00.0000, 3.891399369201147E+08, 1.713482019113206E+08, -4.611048850601397E+06,
2461309.500000000, A.D. 2026-Sep-26 00:00:00.0000, 3.847540850855801E+08, 1.803221290442439E+08, -1.649738209850907E+06,
2461316.500000000, A.D. 2026-Oct-03 00:00:00.0000, 3.801247915878366E+08, 1.891819285710910E+08, 1.312615386903003E+06,
2461323.500000000, A.D. 2026-Oct-10 00:00:00.0000, 3.752544476726474E+08, 1.979217250485626E+08, 4.274135596064389E+06,
2461330.500000000, A.D. 2026-Oct-17 00:00:00.0000, 3.701455872280547E+08, 2.065356815205498E+08, 7.232937937146291E+06,
2461337.500000000, A.D. 2026-Oct-24 00:00:00.0000, 3.648008872042879E+08, 2.150180021137537E+08, 1.018713043025687E+07,
2461344.500000000, A.D. 2026-Oct-31 00:00:00.0000, 3.592231681097897E+08, 2.233629345337459E+08, 1.313481423210780E+07,
2461351.500000000, A.D. 2026-Nov-07 00:00:00.0000, 3.534153949151158E+08, 2.315647725373122E+08, 1.607408424620233E+07,
2461358.500000000, A.D. 2026-Nov-14 00:00:00.0000, 3.473806785583408E+08, 2.396178592714274E+08, 1.900302976178853E+07,
2461365.500000000, A.D. 2026-Nov-21 00:00:00.0000, 3.411222762325804E+08, 2.475165921655262E+08, 2.191973534423022E+07,
2461372.500000000, A.D. 2026-Nov-28 00:00:00.0000, 3.346435894550022E+08, 2.552554263778360E+08, 2.482228182438102E+07,
2461379.500000000, A.D. 2026-Dec-05 00:00:00.0000, 3.279481635401822E+08, 2.628288761448242E+08, 2.770874700347185E+07,
2461386.500000000, A.D. 2026-Dec-12 00:00:00.0000, 3.210396886413893E+08, 2.702315171443008E+08, 3.057720631418787E+07,
2461393.500000000, A.D. 2026-Dec-19 00:00:00.0000, 3.139220004674962E+08, 2.774579898783911E+08, 3.342573361309439E+07,
2461400.500000000, A.D. 2026-Dec-26 00:00:00.0000, 3.065990805277726E+08, 2.845030032088389E+08, 3.625240204803425E+07,
2461407.500000000, A.D. 2027-Jan-02 00:00:00.0000, 2.990750561743563E+08, 2.913613378541142E+08, 3.905528496090785E+07,
2461414.500000000, A.D. 2027-Jan-09 00:00:00.0000, 2.913542005524257E+08, 2.980278498688219E+08, 4.183245681789955E+07,
2461421.500000000, A.D. 2027-Jan-16 00:00:00.0000, 2.834409324857264E+08, 3.044974741145546E+08, 4.458199416565934E+07,
2461428.500000000, A.D. 2027-Jan-23 00:00:00.0000, 2.753398163352428E+08, 3.107652276829602E+08, 4.730197660693192E+07,
2461435.500000000, A.D. 2027-Jan-30 00:00:00.0000, 2.670555620104409E+08, 3.168262132238712E+08, 4.999048777546380E+07,
2461442.500000000, A.D. 2027-Feb-06 00:00:00.0000, 2.585930255502023E+08, 3.226756225191958E+08, 5.264561629998712E+07,
2461449.500000000, A.D. 2027-Feb-13 00:00:00.0000, 2.499572098057067E+08, 3.283087415207251E+08, 5.526545689962247E+07,
2461456.500000000, A.D. 2027-Feb-20 00:00:00.0000, 2.411532628503458E+08, 3.337209560574247E+08, 5.784811176259893E+07,
2461463.500000000, A.D. 2027-Feb-27 00:00:00.0000, 2.321864755022562E+08, 3.389077550002824E+08, 6.039169181862108E+07,
2461470.500000000, A.D. 2027-Mar-06 00:00:00.0000, 2.230622809729373E+08, 3.438647328088786E+08, 6.289431778645299E+07,
2461477.500000000, A.D. 2027-Mar-13 00:00:00.0000, 2.137862550347436E+08, 3.485875935056595E+08, 6.535412131089941E+07,
2461484.500000000, A.D. 2027-Mar-20 00:00:00.0000, 2.043641155686868E+08, 3.530721552402036E+08, 6.776924622449890E+07,
2461491.500000000, A.D. 2027-Mar-27 00:00:00.0000, 1.948017216861348E+08, 3.573143548923156E+08, 7.013784987077624E+07,
2461498.500000000, A.D. 2027-Apr-03 00:00:00.0000, 1.851050726192688E+08, 3.613102526636044E+08, 7.245810446675085E+07,
2461505.500000000, A.D. 2027-Apr-10 00:00:00.0000, 1.752803064334301E+08, 3.650560366773911E+08, 7.472819850107072E+07,
2461512.500000000, A.D. 2027-Apr-17 00:00:00.0000, 1.653336985751409E+08, 3.685480275688428E+08, 7.694633816456442E+07,
2461519.500000000, A.D. 2027-Apr-24 00:00:00.0000, 1.552716603265047E+08, 3.717826829989200E+08, 7.911074880076353E+07,
2461526.500000000, A.D. 2027-May-01 00:00:00.0000, 1.451007374570050E+08, 3.747566021156195E+08, 8.121967635112369E+07,
2461533.500000000, A.D. 2027-May-08 00:00:00.0000, 1.348276093722017E+08, 3.774665307068663E+08, 8.327138882804939E+07,
2461540.500000000, A.D. 2027-May-15 00:00:00.0000, 1.244590872558646E+08, 3.799093679920995E+08, 8.526417803034745E+07,
2461547.500000000, A.D. 2027-May-22 00:00:00.0000, 1.140021096317682E+08, 3.820821724504711E+08, 8.719636143071774E+07,
2461554.500000000, A.D. 2027-May-29 00:00:00.0000, 1.034637386893202E+08, 3.839821652120988E+08, 8.906628380736442E+07,
2461561.500000000, A.D. 2027-Jun-05 00:00:00.0000, 9.285115825174077E+07, 3.856067341406079E+08, 9.087231879521868E+07,
2461568.500000000, A.D. 2027-Jun-12 00:00:00.0000, 8.217167137283750E+07, 3.869534390297247E+08, 9.261287057502177E+07,
2461575.500000000, A.D. 2027-Jun-19 00:00:00.0000, 7.143269722313894E+07, 3.880200169692000E+08, 9.428637565295118E+07,
2461582.500000000, A.D. 2027-Jun-26 00:00:00.0000, 6.064176753750692E+07, 3.888043876094338E+08, 9.589130468276472E+07,
2461589.500000000, A.D. 2027-Jul-03 00:00:00.0000, 4.980652275026691E+07, 3.893046583226436E+08, 9.742616431750704E+07,
2461596.500000000, A.D. 2027-Jul-10 00:00:00.0000, 3.893470784912505E+07, 3.895191292568055E+08, 9.888949908556679E+07,
2461603.500000000, A.D. 2027-Jul-17 00:00:00.0000, 2.803416797806771E+07, 3.894462982289823E+08, 1.002798932809009E+08,
2461610.500000000, A.D. 2027-Jul-24 00:00:00.0000, 1.711284393796120E+07, 3.890848653799218E+08, 1.015959728438244E+08,
2461617.500000000, A.D. 2027-Jul-31 00:00:00.0000, 6.178767987273616E+06, 3.884337378115897E+08, 1.028364072106641E+08,
2461624.500000000, A.D. 2027-Aug-07 00:00:00.0000, -4.759940265641086E+06, 3.874920353487924E+08, 1.039999112434762E+08,
2461631.500000000, A.D. 2027-Aug-14 00:00:00.0000, -1.569508018287953E+07, 3.862590971608442E+08, 1.050852474289524E+08,
2461638.500000000, A.D. 2027-Aug-21 00:00:00.0000, -2.661837801401329E+07, 3.847344858620300E+08, 1.060912280110338E+08,
2461645.500000000, A.D. 2027-Aug-28 00:00:00.0000, -3.752149298395706E+07, 3.829179902795023E+08, 1.070167168381415E+08,
2461652.500000000, A.D. 2027-Sep-04 00:00:00.0000, -4.839602273327175E+07, 3.808096293790932E+08, 1.078606312355051E+08,
2461659.500000000, A.D. 2027-Sep-11 00:00:00.0000, -5.923350950484934E+07, 3.784096566702654E+08, 1.086219439713603E+08,
2461666.500000000, A.D. 2027-Sep-18 00:00:00.0000, -7.002544694393654E+07, 3.757185644208406E+08, 1.092996852458246E+08,
2461673.500000000, A.D. 2027-Sep-25 00:00:00.0000, -8.076328728247008E+07, 3.727370875854733E+08, 1.098929446695663E+08,
2461680.500000000, A.D. 2027-Oct-02 00:00:00.0000, -9.143844883130734E+07, 3.694662074573292E+08, 1.104008732221084E+08,
2461687.500000000, A.D. 2027-Oct-09 00:00:00.0000, -1.020423237552001E+08, 3.659071550202574E+08, 1.108226851816758E+08,
2461694.500000000, A.D. 2027-Oct-16 00:00:00.0000, -1.125662860633143E+08, 3.620614139281039E+08, 1.111576600104621E+08,
2461701.500000000, A.D. 2027-Oct-23 00:00:00.0000, -1.230016995501627E+08, 3.579307230866649E+08, 1.114051441649691E+08,
2461708.500000000, A.D. 2027-Oct-30 00:00:00.0000, -1.333399253062038E+08, 3.535170794298401E+08, 1.115645528409473E+08,
2461715.500000000, A.D. 2027-Nov-06 00:00:00.0000, -1.435723299546110E+08, 3.488227420010887E+08, 1.116353718465589E+08,
2461722.500000000, A.D. 2027-Nov-13 00:00:00.0000, -1.536902965884616E+08, 3.438502352473049E+08, 1.116171596103335E+08,
2461729.500000000, A.D. 2027-Nov-20 00:00:00.0000, -1.636852354929121E+08, 3.386023493164713E+08, 1.115095488704590E+08,
2461736.500000000, A.D. 2027-Nov-27 00:00:00.0000, -1.735485930259149E+08, 3.330821403026614E+08, 1.113122481325983E+08,
2461743.500000000, A.D. 2027-Dec-04 00:00:00.0000, -1.832718606692518E+08, 3.272929313380600E+08, 1.110250431519832E+08,
2461750.500000000, A.D. 2027-Dec-11 00:00:00.0000, -1.928465847837815E+08, 3.212383135516477E+08, 1.106477984050962E+08,
2461757.500000000, A.D. 2027-Dec-18 00:00:00.0000, -2.022643767766176E+08, 3.149221465375761E+08, 1.101804584909862E+08,
2461764.500000000, A.D. 2027-Dec-25 00:00:00.0000, -2.115169235102395E+08, 3.083485583143622E+08, 1.096230494414828E+08,
2461771.500000000, A.D. 2028-Jan-01 00:00:00.0000, -2.205959978926361E+08, 3.015219447741207E+08, 1.089756799313553E+08,
$$EOE